{
  "norad_id": 59132,
  "name": "LIZZIESAT-1 (LS-1)",
  "history": [
    {
      "epoch": "2026-03-28T21:34:52.846464",
      "apogee_km": 493.07894427370593,
      "perigee_km": 477.4413801792898,
      "latitude_deg": 20.03056279070123,
      "longitude_deg": 179.52538495976478,
      "semi_major_axis_km": 6863.397162226498,
      "eccentricity": 0.0011392,
      "inclination_deg": 97.5493,
      "raan_deg": 222.6914,
      "arg_perigee_deg": 161.3514,
      "mean_anomaly_deg": 198.8144,
      "mean_motion_rev_day": 15.26841887
    }
  ]
}